NORAD_CAT_ID,OBJECT_NAME,OBJECT_TYPE,EPOCH,MEAN_MOTION,ECCENTRICITY,INCLINATION,RA_OF_ASC_NODE,ARG_OF_PERICENTER,MEAN_ANOMALY,BSTAR,MEAN_MOTION_DOT,MEAN_MOTION_DDOT,TLE_LINE0,TLE_LINE1,TLE_LINE2,SEMIMAJOR_AXIS,PERIOD,APOGEE,PERIGEE,DECAYED
49415.0,STARLINK-3159,PAYLOAD,2022-12-09 17:50:15,15.0882949,0.0003461,53.2165,143.0473,51.7704,308.3599,1.9801e-05,2.6e-07,0.0,0 STARLINK-3159,1 49415U 21104H   22343.74323967  .00000026  00000-0  19801-4 0  9997,2 49415  53.2165 143.0473 0003461  51.7704 308.3599 15.08829490 60815,6917.913000000001,95.438,542.172,537.383,0.0
49415.0,STARLINK-3159,PAYLOAD,2022-12-10 14:30:16,15.08840348,0.0003318,53.2175,139.18200000000002,50.8448,309.2838,8.0499e-05,9.93e-06,0.0,0 STARLINK-3159,1 49415U 21104H   22344.60435441  .00000993  00000-0  80499-4 0  9998,2 49415  53.2175 139.1820 0003318  50.8448 309.2838 15.08840348 59857,6917.879,95.438,542.04,537.4490000000002,0.0
49415.0,STARLINK-3159,PAYLOAD,2022-12-10 16:05:39,15.08845781,0.0003314,53.2172,138.8841,53.3873,306.7423,1.1453e-05,-1.07e-06,0.0,0 STARLINK-3159,1 49415U 21104H   22344.67059296 -.00000107  00000-0  11453-4 0  9997,2 49415  53.2172 138.8841 0003314  53.3873 306.7423 15.08845781 59868,6917.863,95.437,542.02,537.435,0.0
49415.0,STARLINK-3159,PAYLOAD,2022-12-11 09:34:53,15.08840447,0.0002419,53.2186,135.6165,36.6105,323.5052,6.8577e-05,8.03e-06,0.0,0 STARLINK-3159,1 49415U 21104H   22345.39923168  .00000803  00000-0  68577-4 0  9996,2 49415  53.2186 135.6165 0002419  36.6105 323.5052 15.08840447 59975,6917.879,95.438,541.4169999999998,538.071,0.0
49415.0,STARLINK-3159,PAYLOAD,2022-12-11 17:31:49,15.08836291,0.0003293,53.2166,134.1254,47.2853,312.8415,0.00010436,1.372e-05,0.0,0 STARLINK-3159,1 49415U 21104H   22345.73043675  .00001372  00000-0  10436-3 0  9992,2 49415  53.2166 134.1254 0003293  47.2853 312.8415 15.08836291 61110,6917.892,95.438,542.035,537.479,0.0
49415.0,STARLINK-3159,PAYLOAD,2022-12-12 11:01:03,15.08845776,0.0003361,53.2167,130.8541,53.0209,307.1090000000001,4.9166e-05,4.94e-06,0.0,0 STARLINK-3159,1 49415U 21104H   22346.45907249  .00000494  00000-0  49166-4 0  9995,2 49415  53.2167 130.8541 0003361  53.0209 307.1090 15.08845776 60134,6917.863,95.437,542.053,537.403,0.0
49415.0,STARLINK-3159,PAYLOAD,2022-12-13 09:16:28,15.08836611,0.0003418,53.2168,126.6913,52.8499,307.2805,1.0192e-05,-1.27e-06,0.0,0 STARLINK-3159,1 49415U 21104H   22347.38643856 -.00000127  00000-0  10192-4 0  9990,2 49415  53.2168 126.6913 0003418  52.8499 307.2805 15.08836611 61361,6917.891,95.438,542.12,537.391,0.0
49415.0,STARLINK-3159,PAYLOAD,2022-12-13 15:38:00,15.08839111,0.0003379,53.2163,125.5018,53.094,307.0361,3.7398e-05,3.06e-06,0.0,0 STARLINK-3159,1 49415U 21104H   22347.65139589  .00000306  00000-0  37398-4 0  9998,2 49415  53.2163 125.5018 0003379  53.0940 307.0361 15.08839111 60317,6917.8830000000025,95.438,542.086,537.411,0.0
49415.0,STARLINK-3159,PAYLOAD,2022-12-14 09:07:14,15.08846672,0.0003318,53.2142,122.23,53.0042,307.1253,1.4819000000000008e-05,-5.3e-07,0.0,0 STARLINK-3159,1 49415U 21104H   22348.38003160 -.00000053  00000-0  14819-4 0  9997,2 49415  53.2142 122.2300 0003318  53.0042 307.1253 15.08846672 61512,6917.86,95.437,542.02,537.43,0.0
49415.0,STARLINK-3159,PAYLOAD,2022-12-14 17:04:10,15.08849142,0.0003413,53.2164,120.7483,37.9989,322.1244,-0.0001356,-2.447e-05,0.0,0 STARLINK-3159,1 49415U 21104H   22348.71123438 -.00002447  00000-0 -13560-3 0  9996,2 49415  53.2164 120.7483 0003413  37.9989 322.1244 15.08849142 60474,6917.852,95.437,542.0790000000002,537.356,0.0
49415.0,STARLINK-3159,PAYLOAD,2022-12-15 02:36:29,15.08835558,0.0003339,53.2165,118.9623,49.0526,311.0755,4.9559e-05,5e-06,0.0,0 STARLINK-3159,1 49415U 21104H   22349.10867798  .00000500  00000-0  49559-4 0  9998,2 49415  53.2165 118.9623 0003339  49.0526 311.0755 15.08835558 61626,6917.894,95.438,542.069,537.4490000000002,0.0
49415.0,STARLINK-3159,PAYLOAD,2022-12-15 13:44:10,15.08845714,0.0003188999999999,53.2165,116.8791,53.4716,306.6569,0.00015896,2.243e-05,0.0,0 STARLINK-3159,1 49415U 21104H   22349.57234883  .00002243  00000-0  15896-3 0  9994,2 49415  53.2165 116.8791 0003189  53.4716 306.6569 15.08845714 61697,6917.863,95.437,541.934,537.5219999999998,0.0
49415.0,STARLINK-3159,PAYLOAD,2022-12-15 18:30:20,15.08845596,0.0003484,53.2167,115.9895,47.642,312.4867,0.00011753,1.583e-05,0.0,0 STARLINK-3159,1 49415U 21104H   22349.77107019  .00001583  00000-0  11753-3 0  9990,2 49415  53.2167 115.9895 0003484  47.6420 312.4867 15.08845596 60636,6917.863,95.437,542.138,537.318,0.0
49415.0,STARLINK-3159,PAYLOAD,2022-12-16 13:34:58,15.08845221,0.0003185,53.2169,112.4196,50.9657,309.1618,6.2824e-05,7.11e-06,0.0,0 STARLINK-3159,1 49415U 21104H   22350.56594962  .00000711  00000-0  62824-4 0  9994,2 49415  53.2169 112.4196 0003185  50.9657 309.1618 15.08845221 61847,6917.864000000001,95.437,541.933,537.526,0.0
49415.0,STARLINK-3159,PAYLOAD,2022-12-16 18:21:08,15.08835414,0.0003113,53.2165,111.5274,47.6466,312.4789,-3.3236e-05,-8.18e-06,0.0,0 STARLINK-3159,1 49415U 21104H   22350.76467808 -.00000818  00000-0 -33236-4 0  9999,2 49415  53.2165 111.5274 0003113  47.6466 312.4789 15.08835414 61874,6917.894,95.438,541.913,537.606,0.0
49415.0,STARLINK-3159,PAYLOAD,2022-12-17 11:50:22,15.08836529,0.0003055,53.2172,108.2561,50.6921,309.4341,-6.3108e-05,-1.293e-05,0.0,0 STARLINK-3159,1 49415U 21104H   22351.49332058 -.00001293  00000-0 -63108-4 0  9997,2 49415  53.2172 108.2561 0003055  50.6921 309.4341 15.08836529 60898,6917.891,95.438,541.869,537.643,0.0
49415.0,STARLINK-3159,PAYLOAD,2022-12-17 15:01:09,15.088368,0.0003064,53.2167,107.6616,50.422,309.7043,-4.5342e-05,-1.01e-05,0.0,0 STARLINK-3159,1 49415U 21104H   22351.62580000 -.00001010  00000-0 -45342-4 0  9991,2 49415  53.2167 107.6616 0003064  50.4220 309.7043 15.08836800 60913,6917.89,95.438,541.875,537.636,0.0
49415.0,STARLINK-3159,PAYLOAD,2022-12-18 00:33:27,15.08836286,0.0003021,53.2168,105.8776,49.7547,310.3709,3.9485e-06,-2.26e-06,0.0,0 STARLINK-3159,1 49415U 21104H   22352.02323979 -.00000226  00000-0  39485-5 0  9995,2 49415  53.2168 105.8776 0003021  49.7547 310.3709 15.08836286 62060,6917.892,95.438,541.847,537.6669999999998,0.0
49415.0,STARLINK-3159,PAYLOAD,2022-12-18 11:41:10,15.08834082,0.0002977,53.2176,103.7959,50.4639,309.6616,-9.3439e-06,-4.37e-06,0.0,0 STARLINK-3159,1 49415U 21104H   22352.48692323 -.00000437  00000-0 -93439-5 0  9991,2 49415  53.2176 103.7959 0002977  50.4639 309.6616 15.08834082 61046,6917.898,95.438,541.823,537.7040000000002,0.0
49415.0,STARLINK-3159,PAYLOAD,2022-12-18 14:51:56,15.08837692,0.0002999,53.2184,103.2025,52.1353,307.9911,2.6142e-05,1.27e-06,0.0,0 STARLINK-3159,1 49415U 21104H   22352.61940054  .00000127  00000-0  26142-4 0  9993,2 49415  53.2184 103.2025 0002999  52.1353 307.9911 15.08837692 61061,6917.887,95.438,541.827,537.678,0.0
49415.0,STARLINK-3159,PAYLOAD,2022-12-19 00:24:15,15.08827736,0.0002966,53.218,101.4195,51.3366,308.7891,1.3769e-06,-2.67e-06,0.0,0 STARLINK-3159,1 49415U 21104H   22353.01685041 -.00000267  00000-0  13769-5 0  9998,2 49415  53.2180 101.4195 0002966  51.3366 308.7891 15.08827736 62216,6917.918000000002,95.438,541.835,537.731,0.0
49415.0,STARLINK-3159,PAYLOAD,2022-12-19 08:21:11,15.08834702,0.0002954,53.2173,99.9298,46.3736,313.7501,0.00010657,1.408e-05,0.0,0 STARLINK-3159,1 49415U 21104H   22353.34804509  .00001408  00000-0  10657-3 0  9994,2 49415  53.2173  99.9298 0002954  46.3736 313.7501 15.08834702 62265,6917.897,95.438,541.805,537.7180000000002,0.0
49415.0,STARLINK-3159,PAYLOAD,2022-12-19 16:18:06,15.08845428,0.0002961,53.2175,98.4428,47.3298,312.7943,0.00020207,2.929e-05,0.0,0 STARLINK-3159,1 49415U 21104H   22353.67923722  .00002929  00000-0  20207-3 0  9990,2 49415  53.2175  98.4428 0002961  47.3298 312.7943 15.08845428 61229,6917.864000000001,95.437,541.7769999999998,537.68,0.0
49415.0,STARLINK-3159,PAYLOAD,2022-12-20 12:58:06,15.08850167,0.0003039,53.2172,94.5771,46.4373,313.6871,0.00024182,3.563e-05,0.0,0 STARLINK-3159,1 49415U 21104H   22354.54035426  .00003563  00000-0  24182-3 0  9993,2 49415  53.2172  94.5771 0003039  46.4373 313.6871 15.08850167 61355,6917.849,95.437,541.817,537.612,0.0
49415.0,STARLINK-3159,PAYLOAD,2022-12-21 12:48:54,15.08833438,0.00029,53.218,90.1177,45.6911,314.4318,-7.2693e-05,-1.445e-05,0.0,0 STARLINK-3159,1 49415U 21104H   22355.53396463 -.00001445  00000-0 -72693-4 0  9994,2 49415  53.2180  90.1177 0002900  45.6911 314.4318 15.08833438 62595,6917.9,95.438,541.7719999999998,537.759,0.0
49415.0,STARLINK-3159,PAYLOAD,2022-12-22 12:39:41,15.08836277,0.0002773,53.2186,85.6567,43.7481,316.3731,-4.2209e-06,-3.56e-06,0.0,0 STARLINK-3159,1 49415U 21104H   22356.52756843 -.00000356  00000-0 -42209-5 0  9997,2 49415  53.2186  85.6567 0002773  43.7481 316.3731 15.08836277 61652,6917.892,95.438,541.675,537.8380000000002,0.0
49415.0,STARLINK-3159,PAYLOAD,2022-12-22 17:25:51,15.08834687,0.0002792,53.2178,84.7656,42.2975,317.8232,8.2836e-05,1.03e-05,0.0,0 STARLINK-3159,1 49415U 21104H   22356.72628982  .00001030  00000-0  82836-4 0  9998,2 49415  53.2178  84.7656 0002792  42.2975 317.8232 15.08834687 62774,6917.897,95.438,541.693,537.83,0.0
49415.0,STARLINK-3159,PAYLOAD,2022-12-23 10:55:05,15.08839823,0.000278,53.2176,81.4949,38.302,321.817,0.0001396999999999,1.936e-05,0.0,0 STARLINK-3159,1 49415U 21104H   22357.45493052  .00001936  00000-0  13970-3 0  9994,2 49415  53.2176  81.4949 0002780  38.3020 321.8170 15.08839823 61799,6917.880999999999,95.438,541.669,537.823,0.0
49415.0,STARLINK-3159,PAYLOAD,2022-12-23 17:16:38,15.08831114,0.0002686,53.2173,80.3045,35.1833,324.9337,7.3832e-05,8.87e-06,0.0,0 STARLINK-3159,1 49415U 21104H   22357.71989580  .00000887  00000-0  73832-4 0  9997,2 49415  53.2173  80.3045 0002686  35.1833 324.9337 15.08831114 61832,6917.908,95.438,541.631,537.914,0.0
